{"type": "FeatureCollection", "features": [ {"type": "Feature", "properties": {"norad_id": 66523, "name": "STARLINK-35969", "group": "last-30-days", "lat": -41.03209531546659, "lon": -19.638326883861637, "alt_km": 372.7332327531976, "timestamp": "2025-12-06T09:34:15.699327+00:00", "meta": {"OBJECT_NAME": "STARLINK-35969", "OBJECT_ID": "2025-265H", "EPOCH": "2025-12-05T22:00:03.000096", "MEAN_MOTION": 15.67993801, "ECCENTRICITY": 0.00016063, "INCLINATION": 43.0003, "RA_OF_ASC_NODE": 94.1981, "ARG_OF_PERICENTER": 285.9263, "MEAN_ANOMALY": 125.6034, "EPHEMERIS_TYPE": 0, "CLASSIFICATION_TYPE": "U", "NORAD_CAT_ID": 66523, "ELEMENT_SET_NO": 999, "REV_AT_EPOCH": 389, "BSTAR": -0.019341241, "MEAN_MOTION_DOT": -0.01949348, "MEAN_MOTION_DDOT": 0}, "tle": {"line1": "1 66523U 25265H   25339.91670139 -.01949348  00000+0 -19341-1 0  9998", "line2": "2 66523  43.0003  94.1981 0001606 285.9263 125.6034 15.67993801  3894"}}, "geometry": {"type": "Point", "coordinates": [-19.638326883861637, -41.03209531546659]}}, {"type": "Feature", "properties": {"norad_id": 66524, "name": "STARLINK-35687", "group": "last-30-days", "lat": -41.47165173013373, "lon": -17.1680653020214, "alt_km": 372.7389563766483, "timestamp": "2025-12-06T09:34:15.699339+00:00", "meta": {"OBJECT_NAME": "STARLINK-35687", "OBJECT_ID": "2025-265J", "EPOCH": "2025-12-05T22:00:03.000096", "MEAN_MOTION": 15.67992555, "ECCENTRICITY": 0.00016689, "INCLINATION": 43.0002, "RA_OF_ASC_NODE": 94.1929, "ARG_OF_PERICENTER": 288.6743, "MEAN_ANOMALY": 124.7738, "EPHEMERIS_TYPE": 0, "CLASSIFICATION_TYPE": "U", "NORAD_CAT_ID": 66524, "ELEMENT_SET_NO": 999, "REV_AT_EPOCH": 389, "BSTAR": -0.019343694, "MEAN_MOTION_DOT": -0.01949526, "MEAN_MOTION_DDOT": 0}, "tle": {"line1": "1 66524U 25265J   25339.91670139 -.01949526  00000+0 -19344-1 0  9990", "line2": "2 66524  43.0002  94.1929 0001668 288.6743 124.7738 15.67992555  3893"}}, "geometry": {"type": "Point", "coordinates": [-17.1680653020214, -41.47165173013373]}}, {"type": "Feature", "properties": {"norad_id": 66525, "name": "STARLINK-35975", "group": "last-30-days", "lat": -41.85821439330426, "lon": -14.659069551879714, "alt_km": 372.71190348646087, "timestamp": "2025-12-06T09:34:15.699349+00:00", "meta": {"OBJECT_NAME": "STARLINK-35975", "OBJECT_ID": "2025-265K", "EPOCH": "2025-12-05T22:00:03.000096", "MEAN_MOTION": 15.67994099, "ECCENTRICITY": 0.00016188, "INCLINATION": 43, "RA_OF_ASC_NODE": 94.1886, "ARG_OF_PERICENTER": 285.8351, "MEAN_ANOMALY": 129.5304, "EPHEMERIS_TYPE": 0, "CLASSIFICATION_TYPE": "U", "NORAD_CAT_ID": 66525, "ELEMENT_SET_NO": 999, "REV_AT_EPOCH": 389, "BSTAR": -0.019368682, "MEAN_MOTION_DOT": -0.01951821, "MEAN_MOTION_DDOT": 0}, "tle": {"line1": "1 66525U 25265K   25339.91670139 -.01951821  00000+0 -19369-1 0  9999", "line2": "2 66525  43.0000  94.1886 0001618 285.8351 129.5304 15.67994099  3890"}}, "geometry": {"type": "Point", "coordinates": [-14.659069551879714, -41.85821439330426]}}, {"type": "Feature", "properties": {"norad_id": 66526, "name": "STARLINK-35932", "group": "last-30-days", "lat": -42.18915688398942, "lon": -12.127264964106388, "alt_km": 372.7317588179494, "timestamp": "2025-12-06T09:34:15.699359+00:00", "meta": {"OBJECT_NAME": "STARLINK-35932", "OBJECT_ID": "2025-265L", "EPOCH": "2025-12-05T22:00:03.000096", "MEAN_MOTION": 15.67990734, "ECCENTRICITY": 0.00016356, "INCLINATION": 43.0002, "RA_OF_ASC_NODE": 94.1837, "ARG_OF_PERICENTER": 288.3359, "MEAN_ANOMALY": 128.9503, "EPHEMERIS_TYPE": 0, "CLASSIFICATION_TYPE": "U", "NORAD_CAT_ID": 66526, "ELEMENT_SET_NO": 999, "REV_AT_EPOCH": 378, "BSTAR": -0.019351018, "MEAN_MOTION_DOT": -0.01950022, "MEAN_MOTION_DDOT": 0}, "tle": {"line1": "1 66526U 25265L   25339.91670139 -.01950022  00000+0 -19351-1 0  9993", "line2": "2 66526  43.0002  94.1837 0001635 288.3359 128.9503 15.67990734  3788"}}, "geometry": {"type": "Point", "coordinates": [-12.127264964106388, -42.18915688398942]}}, {"type": "Feature", "properties": {"norad_id": 66527, "name": "STARLINK-35935", "group": "last-30-days", "lat": -42.46360822599211, "lon": -9.568237853509737, "alt_km": 372.7578750774237, "timestamp": "2025-12-06T09:34:15.699368+00:00", "meta": {"OBJECT_NAME": "STARLINK-35935", "OBJECT_ID": "2025-265M", "EPOCH": "2025-12-05T22:00:03.000096", "MEAN_MOTION": 15.67994109, "ECCENTRICITY": 0.00015574, "INCLINATION": 43.0001, "RA_OF_ASC_NODE": 94.1791, "ARG_OF_PERICENTER": 288.1171, "MEAN_ANOMALY": 131.0823, "EPHEMERIS_TYPE": 0, "CLASSIFICATION_TYPE": "U", "NORAD_CAT_ID": 66527, "ELEMENT_SET_NO": 999, "REV_AT_EPOCH": 389, "BSTAR": -0.019372982, "MEAN_MOTION_DOT": -0.01952156, "MEAN_MOTION_DDOT": 0}, "tle": {"line1": "1 66527U 25265M   25339.91670139 -.01952156  00000+0 -19373-1 0  9998", "line2": "2 66527  43.0001  94.1791 0001557 288.1171 131.0823 15.67994109  3892"}}, "geometry": {"type": "Point", "coordinates": [-9.568237853509737, -42.46360822599211]}}, {"type": "Feature", "properties": {"norad_id": 66528, "name": "STARLINK-35928", "group": "last-30-days", "lat": -42.68061964523895, "lon": -6.991265280769136, "alt_km": 372.69428885448906, "timestamp": "2025-12-06T09:34:15.699380+00:00", "meta": {"OBJECT_NAME": "STARLINK-35928", "OBJECT_ID": "2025-265N", "EPOCH": "2025-12-05T22:00:03.000096", "MEAN_MOTION": 15.67991899, "ECCENTRICITY": 0.00016535, "INCLINATION": 43.0003, "RA_OF_ASC_NODE": 94.1742, "ARG_OF_PERICENTER": 288.8376, "MEAN_ANOMALY": 132.2806, "EPHEMERIS_TYPE": 0, "CLASSIFICATION_TYPE": "U", "NORAD_CAT_ID": 66528, "ELEMENT_SET_NO": 999, "REV_AT_EPOCH": 389, "BSTAR": -0.019352561, "MEAN_MOTION_DOT": -0.01950256, "MEAN_MOTION_DDOT": 0}, "tle": {"line1": "1 66528U 25265N   25339.91670139 -.01950256  00000+0 -19353-1 0  9996", "line2": "2 66528  43.0003  94.1742 0001653 288.8376 132.2806 15.67991899  3899"}}, "geometry": {"type": "Point", "coordinates": [-6.991265280769136, -42.68061964523895]}}, {"type": "Feature", "properties": {"norad_id": 66529, "name": "STARLINK-35933", "group": "last-30-days", "lat": -42.839284636343734, "lon": -4.394775869953275, "alt_km": 372.7194036038227, "timestamp": "2025-12-06T09:34:15.699390+00:00", "meta": {"OBJECT_NAME": "STARLINK-35933", "OBJECT_ID": "2025-265P", "EPOCH": "2025-12-05T22:00:03.000096", "MEAN_MOTION": 15.67993156, "ECCENTRICITY": 0.0001541, "INCLINATION": 43.0003, "RA_OF_ASC_NODE": 94.1691, "ARG_OF_PERICENTER": 286.8595, "MEAN_ANOMALY": 136.1745, "EPHEMERIS_TYPE": 0, "CLASSIFICATION_TYPE": "U", "NORAD_CAT_ID": 66529, "ELEMENT_SET_NO": 999, "REV_AT_EPOCH": 389, "BSTAR": -0.019357042, "MEAN_MOTION_DOT": -0.01950657, "MEAN_MOTION_DDOT": 0}, "tle": {"line1": "1 66529U 25265P   25339.91670139 -.01950657  00000+0 -19357-1 0  9996", "line2": "2 66529  43.0003  94.1691 0001541 286.8595 136.1745 15.67993156  3893"}}, "geometry": {"type": "Point", "coordinates": [-4.394775869953275, -42.839284636343734]}}, {"type": "Feature", "properties": {"norad_id": 66530, "name": "STARLINK-35961", "group": "last-30-days", "lat": -42.938667799435, "lon": -1.7876238380439742, "alt_km": 372.79804439609234, "timestamp": "2025-12-06T09:34:15.699400+00:00", "meta": {"OBJECT_NAME": "STARLINK-35961", "OBJECT_ID": "2025-265Q", "EPOCH": "2025-12-05T22:00:03.000096", "MEAN_MOTION": 15.67963524, "ECCENTRICITY": 0.00014074, "INCLINATION": 43.0002, "RA_OF_ASC_NODE": 94.1645, "ARG_OF_PERICENTER": 288.5859, "MEAN_ANOMALY": 136.3873, "EPHEMERIS_TYPE": 0, "CLASSIFICATION_TYPE": "U", "NORAD_CAT_ID": 66530, "ELEMENT_SET_NO": 999, "REV_AT_EPOCH": 389, "BSTAR": -0.019039148, "MEAN_MOTION_DOT": -0.01920129, "MEAN_MOTION_DDOT": 0}, "tle": {"line1": "1 66530U 25265Q   25339.91670139 -.01920129  00000+0 -19039-1 0  9996", "line2": "2 66530  43.0002  94.1645 0001407 288.5859 136.3873 15.67963524  3896"}}, "geometry": {"type": "Point", "coordinates": [-1.7876238380439742, -42.938667799435]}}, {"type": "Feature", "properties": {"norad_id": 66531, "name": "STARLINK-35960", "group": "last-30-days", "lat": -42.97860388062488, "lon": 0.8186860637443073, "alt_km": 372.6755174102591, "timestamp": "2025-12-06T09:34:15.699412+00:00", "meta": {"OBJECT_NAME": "STARLINK-35960", "OBJECT_ID": "2025-265R", "EPOCH": "2025-12-05T22:00:03.000096", "MEAN_MOTION": 15.6799919, "ECCENTRICITY": 0.00016058, "INCLINATION": 43.0002, "RA_OF_ASC_NODE": 94.1593, "ARG_OF_PERICENTER": 288.8611, "MEAN_ANOMALY": 138.0041, "EPHEMERIS_TYPE": 0, "CLASSIFICATION_TYPE": "U", "NORAD_CAT_ID": 66531, "ELEMENT_SET_NO": 999, "REV_AT_EPOCH": 389, "BSTAR": -0.019442094, "MEAN_MOTION_DOT": -0.01958703, "MEAN_MOTION_DDOT": 0}, "tle": {"line1": "1 66531U 25265R   25339.91670139 -.01958703  00000+0 -19442-1 0  9994", "line2": "2 66531  43.0002  94.1593 0001605 288.8611 138.0041 15.67999190  3892"}}, "geometry": {"type": "Point", "coordinates": [0.8186860637443073, -42.97860388062488]}}, {"type": "Feature", "properties": {"norad_id": 66532, "name": "STARLINK-35914", "group": "last-30-days", "lat": -42.958953553554174, "lon": 3.430570897081541, "alt_km": 372.6487810276212, "timestamp": "2025-12-06T09:34:15.699422+00:00", "meta": {"OBJECT_NAME": "STARLINK-35914", "OBJECT_ID": "2025-265S", "EPOCH": "2025-12-05T22:00:03.000096", "MEAN_MOTION": 15.67990389, "ECCENTRICITY": 0.00016116, "INCLINATION": 43.0001, "RA_OF_ASC_NODE": 94.1546, "ARG_OF_PERICENTER": 289.441, "MEAN_ANOMALY": 139.3456, "EPHEMERIS_TYPE": 0, "CLASSIFICATION_TYPE": "U", "NORAD_CAT_ID": 66532, "ELEMENT_SET_NO": 999, "REV_AT_EPOCH": 389, "BSTAR": -0.019325089, "MEAN_MOTION_DOT": -0.01947671, "MEAN_MOTION_DDOT": 0}, "tle": {"line1": "1 66532U 25265S   25339.91670139 -.01947671  00000+0 -19325-1 0  9997", "line2": "2 66532  43.0001  94.1546 0001611 289.4410 139.3456 15.67990389  3896"}}, "geometry": {"type": "Point", "coordinates": [3.430570897081541, -42.958953553554174]}}]}